{"type": "FeatureCollection", "features": [ {"type": "Feature", "properties": {"norad_id": 39574, "name": "GPM-CORE", "group": "resource", "lat": 62.453754659417896, "lon": -19.75696391997517, "alt_km": 429.97990140871116, "timestamp": "2025-12-09T09:46:47.304032+00:00", "meta": {"OBJECT_NAME": "GPM-CORE", "OBJECT_ID": "2014-009C", "EPOCH": "2025-12-09T03:07:40.767744", "MEAN_MOTION": 15.45431887, "ECCENTRICITY": 0.001051, "INCLINATION": 64.9737, "RA_OF_ASC_NODE": 224.7725, "ARG_OF_PERICENTER": 269.8477, "MEAN_ANOMALY": 90.146, "EPHEMERIS_TYPE": 0, "CLASSIFICATION_TYPE": "U", "NORAD_CAT_ID": 39574, "ELEMENT_SET_NO": 999, "REV_AT_EPOCH": 66845, "BSTAR": 0.00036305, "MEAN_MOTION_DOT": 0.00017291, "MEAN_MOTION_DDOT": 0}, "tle": {"line1": "1 39574U 14009C   25343.13033296  .00017291  00000+0  36305-3 0  9995", "line2": "2 39574  64.9737 224.7725 0010510 269.8477  90.1460 15.45431887668450"}}, "geometry": {"type": "Point", "coordinates": [-19.75696391997517, 62.453754659417896]}}, {"type": "Feature", "properties": {"norad_id": 39634, "name": "SENTINEL-1A", "group": "resource", "lat": -81.80704983149813, "lon": 81.20215041757757, "alt_km": 703.9852064336783, "timestamp": "2025-12-09T09:46:47.304042+00:00", "meta": {"OBJECT_NAME": "SENTINEL-1A", "OBJECT_ID": "2014-016A", "EPOCH": "2025-12-09T03:36:38.259648", "MEAN_MOTION": 14.59200679, "ECCENTRICITY": 0.0001254, "INCLINATION": 98.1799, "RA_OF_ASC_NODE": 348.4445, "ARG_OF_PERICENTER": 83.957, "MEAN_ANOMALY": 276.1773, "EPHEMERIS_TYPE": 0, "CLASSIFICATION_TYPE": "U", "NORAD_CAT_ID": 39634, "ELEMENT_SET_NO": 999, "REV_AT_EPOCH": 62230, "BSTAR": 9.137e-05, "MEAN_MOTION_DOT": 3.85e-06, "MEAN_MOTION_DDOT": 0}, "tle": {"line1": "1 39634U 14016A   25343.15044282  .00000385  00000+0  91370-4 0  9999", "line2": "2 39634  98.1799 348.4445 0001254  83.9570 276.1773 14.59200679622305"}}, "geometry": {"type": "Point", "coordinates": [81.20215041757757, -81.80704983149813]}}, {"type": "Feature", "properties": {"norad_id": 39731, "name": "KAZEOSAT 1", "group": "resource", "lat": 81.63141519667964, "lon": -30.656819257877313, "alt_km": 743.4805483396167, "timestamp": "2025-12-09T09:46:47.304053+00:00", "meta": {"OBJECT_NAME": "KAZEOSAT 1", "OBJECT_ID": "2014-024A", "EPOCH": "2025-12-09T04:22:15.544704", "MEAN_MOTION": 14.42059065, "ECCENTRICITY": 0.0001069, "INCLINATION": 98.3436, "RA_OF_ASC_NODE": 55.1692, "ARG_OF_PERICENTER": 95.9816, "MEAN_ANOMALY": 264.1496, "EPHEMERIS_TYPE": 0, "CLASSIFICATION_TYPE": "U", "NORAD_CAT_ID": 39731, "ELEMENT_SET_NO": 999, "REV_AT_EPOCH": 61117, "BSTAR": 8.435e-05, "MEAN_MOTION_DOT": 2.34e-06, "MEAN_MOTION_DDOT": 0}, "tle": {"line1": "1 39731U 14024A   25343.18212436  .00000234  00000+0  84350-4 0  9990", "line2": "2 39731  98.3436  55.1692 0001069  95.9816 264.1496 14.42059065611174"}}, "geometry": {"type": "Point", "coordinates": [-30.656819257877313, 81.63141519667964]}}, {"type": "Feature", "properties": {"norad_id": 39766, "name": "ALOS-2", "group": "resource", "lat": -64.45858062137123, "lon": -118.6423374200339, "alt_km": 639.0833585050568, "timestamp": "2025-12-09T09:46:47.304063+00:00", "meta": {"OBJECT_NAME": "ALOS-2", "OBJECT_ID": "2014-029A", "EPOCH": "2025-12-08T22:56:02.113728", "MEAN_MOTION": 14.79456223, "ECCENTRICITY": 0.00014358, "INCLINATION": 97.9229, "RA_OF_ASC_NODE": 77.8557, "ARG_OF_PERICENTER": 101.425, "MEAN_ANOMALY": 258.7123, "EPHEMERIS_TYPE": 0, "CLASSIFICATION_TYPE": "U", "NORAD_CAT_ID": 39766, "ELEMENT_SET_NO": 999, "REV_AT_EPOCH": 62345, "BSTAR": 0.00036724716, "MEAN_MOTION_DOT": 2.691e-05, "MEAN_MOTION_DDOT": 0}, "tle": {"line1": "1 39766U 14029A   25342.95558002  .00002691  00000+0  36725-3 0  9990", "line2": "2 39766  97.9229  77.8557 0001435 101.4250 258.7123 14.79456223623457"}}, "geometry": {"type": "Point", "coordinates": [-118.6423374200339, -64.45858062137123]}}, {"type": "Feature", "properties": {"norad_id": 40010, "name": "KAZEOSAT 2", "group": "resource", "lat": 82.04015515127213, "lon": 116.35535771692888, "alt_km": 609.1123864606316, "timestamp": "2025-12-09T09:46:47.304074+00:00", "meta": {"OBJECT_NAME": "KAZEOSAT 2", "OBJECT_ID": "2014-033A", "EPOCH": "2025-12-09T04:32:09.155040", "MEAN_MOTION": 14.85157685, "ECCENTRICITY": 0.0007467, "INCLINATION": 97.55, "RA_OF_ASC_NODE": 187.6864, "ARG_OF_PERICENTER": 220.0166, "MEAN_ANOMALY": 140.05, "EPHEMERIS_TYPE": 0, "CLASSIFICATION_TYPE": "U", "NORAD_CAT_ID": 40010, "ELEMENT_SET_NO": 999, "REV_AT_EPOCH": 62075, "BSTAR": 0.00013798, "MEAN_MOTION_DOT": 1.131e-05, "MEAN_MOTION_DDOT": 0}, "tle": {"line1": "1 40010U 14033A   25343.18899485  .00001131  00000+0  13798-3 0  9991", "line2": "2 40010  97.5500 187.6864 0007467 220.0166 140.0500 14.85157685620754"}}, "geometry": {"type": "Point", "coordinates": [116.35535771692888, 82.04015515127213]}}, {"type": "Feature", "properties": {"norad_id": 40011, "name": "HODOYOSHI-4", "group": "resource", "lat": 32.14615735489053, "lon": -2.7688286207423363, "alt_km": 597.1839370684429, "timestamp": "2025-12-09T09:46:47.304085+00:00", "meta": {"OBJECT_NAME": "HODOYOSHI-4", "OBJECT_ID": "2014-033B", "EPOCH": "2025-12-09T04:16:26.251104", "MEAN_MOTION": 14.8745877, "ECCENTRICITY": 0.0022853, "INCLINATION": 97.5412, "RA_OF_ASC_NODE": 172.2378, "ARG_OF_PERICENTER": 212.8547, "MEAN_ANOMALY": 147.1251, "EPHEMERIS_TYPE": 0, "CLASSIFICATION_TYPE": "U", "NORAD_CAT_ID": 40011, "ELEMENT_SET_NO": 999, "REV_AT_EPOCH": 62055, "BSTAR": 0.0001246, "MEAN_MOTION_DOT": 1.081e-05, "MEAN_MOTION_DDOT": 0}, "tle": {"line1": "1 40011U 14033B   25343.17808161  .00001081  00000+0  12460-3 0  9991", "line2": "2 40011  97.5412 172.2378 0022853 212.8547 147.1251 14.87458770620555"}}, "geometry": {"type": "Point", "coordinates": [-2.7688286207423363, 32.14615735489053]}}, {"type": "Feature", "properties": {"norad_id": 40013, "name": "DEIMOS-2", "group": "resource", "lat": -58.37338138781811, "lon": 26.785600767396573, "alt_km": 596.5147659727081, "timestamp": "2025-12-09T09:46:47.304095+00:00", "meta": {"OBJECT_NAME": "DEIMOS-2", "OBJECT_ID": "2014-033D", "EPOCH": "2025-12-09T05:29:41.242848", "MEAN_MOTION": 14.92950578, "ECCENTRICITY": 0.0001054, "INCLINATION": 97.6064, "RA_OF_ASC_NODE": 219.1454, "ARG_OF_PERICENTER": 88.5406, "MEAN_ANOMALY": 271.5934, "EPHEMERIS_TYPE": 0, "CLASSIFICATION_TYPE": "U", "NORAD_CAT_ID": 40013, "ELEMENT_SET_NO": 999, "REV_AT_EPOCH": 60937, "BSTAR": 0.00025005, "MEAN_MOTION_DOT": 2.541e-05, "MEAN_MOTION_DDOT": 0}, "tle": {"line1": "1 40013U 14033D   25343.22894957  .00002541  00000+0  25005-3 0  9998", "line2": "2 40013  97.6064 219.1454 0001054  88.5406 271.5934 14.92950578609375"}}, "geometry": {"type": "Point", "coordinates": [26.785600767396573, -58.37338138781811]}}, {"type": "Feature", "properties": {"norad_id": 40015, "name": "HODOYOSHI-3", "group": "resource", "lat": 73.25907986208047, "lon": -4.184975893414186, "alt_km": 627.3022350243273, "timestamp": "2025-12-09T09:46:47.304105+00:00", "meta": {"OBJECT_NAME": "HODOYOSHI-3", "OBJECT_ID": "2014-033F", "EPOCH": "2025-12-09T01:13:10.934400", "MEAN_MOTION": 14.8478648, "ECCENTRICITY": 0.0031809, "INCLINATION": 97.6199, "RA_OF_ASC_NODE": 149.0465, "ARG_OF_PERICENTER": 260.5751, "MEAN_ANOMALY": 99.1868, "EPHEMERIS_TYPE": 0, "CLASSIFICATION_TYPE": "U", "NORAD_CAT_ID": 40015, "ELEMENT_SET_NO": 999, "REV_AT_EPOCH": 61940, "BSTAR": 0.0002815, "MEAN_MOTION_DOT": 2.357e-05, "MEAN_MOTION_DDOT": 0}, "tle": {"line1": "1 40015U 14033F   25343.05082100  .00002357  00000+0  28150-3 0  9999", "line2": "2 40015  97.6199 149.0465 0031809 260.5751  99.1868 14.84786480619400"}}, "geometry": {"type": "Point", "coordinates": [-4.184975893414186, 73.25907986208047]}}, {"type": "Feature", "properties": {"norad_id": 40053, "name": "SPOT 7", "group": "resource", "lat": 62.812162338773014, "lon": -118.36296004300422, "alt_km": 683.7447427938496, "timestamp": "2025-12-09T09:46:47.304116+00:00", "meta": {"OBJECT_NAME": "SPOT 7", "OBJECT_ID": "2014-034A", "EPOCH": "2025-12-08T23:23:12.427296", "MEAN_MOTION": 14.60726325, "ECCENTRICITY": 0.00015347, "INCLINATION": 98.0908, "RA_OF_ASC_NODE": 45.1366, "ARG_OF_PERICENTER": 89.1839, "MEAN_ANOMALY": 270.9538, "EPHEMERIS_TYPE": 0, "CLASSIFICATION_TYPE": "U", "NORAD_CAT_ID": 40053, "ELEMENT_SET_NO": 999, "REV_AT_EPOCH": 60936, "BSTAR": 0.00018819104, "MEAN_MOTION_DOT": 8.72e-06, "MEAN_MOTION_DDOT": 0}, "tle": {"line1": "1 40053U 14034A   25342.97444939  .00000872  00000+0  18819-3 0  9995", "line2": "2 40053  98.0908  45.1366 0001534  89.1839 270.9538 14.60726325609368"}}, "geometry": {"type": "Point", "coordinates": [-118.36296004300422, 62.812162338773014]}}, {"type": "Feature", "properties": {"norad_id": 40072, "name": "SKYSAT-B", "group": "resource", "lat": 81.31533734830111, "lon": -178.73882326627114, "alt_km": 597.3506171282825, "timestamp": "2025-12-09T09:46:47.304128+00:00", "meta": {"OBJECT_NAME": "SKYSAT-B", "OBJECT_ID": "2014-037D", "EPOCH": "2025-12-09T02:54:27.041184", "MEAN_MOTION": 14.87305028, "ECCENTRICITY": 0.0005857, "INCLINATION": 98.3607, "RA_OF_ASC_NODE": 286.636, "ARG_OF_PERICENTER": 161.034, "MEAN_ANOMALY": 199.1094, "EPHEMERIS_TYPE": 0, "CLASSIFICATION_TYPE": "U", "NORAD_CAT_ID": 40072, "ELEMENT_SET_NO": 999, "REV_AT_EPOCH": 61770, "BSTAR": 0.00030935, "MEAN_MOTION_DOT": 2.731e-05, "MEAN_MOTION_DDOT": 0}, "tle": {"line1": "1 40072U 14037D   25343.12114631  .00002731  00000+0  30935-3 0  9999", "line2": "2 40072  98.3607 286.6360 0005857 161.0340 199.1094 14.87305028617701"}}, "geometry": {"type": "Point", "coordinates": [-178.73882326627114, 81.31533734830111]}}]}